BEIDOU 3 (C01)          
1 36287U 10001A   21270.25901593 -.00000282  00000-0  00000+0 0  9996
2 36287   1.6549  40.2931 0003195  77.3022 122.3025  1.00267634 42876
BEIDOU 5 (C06)          
1 36828U 10036A   21270.19895925 -.00000130  00000-0  00000+0 0  9991
2 36828  54.1828 178.6547 0023212 181.4310 185.0284  1.00274102 40945
BEIDOU 6 (C04)          
1 37210U 10057A   21270.62711471 -.00000113  00000-0  00000+0 0  9992
2 37210   0.7256  36.6700 0004442 140.4246 215.1759  1.00273469 39994
BEIDOU 7 (C07)          
1 37256U 10068A   21270.05510406 -.00000174  00000-0  00000+0 0  9993
2 37256  50.6871 292.7953 0017983 188.9128  13.1428  1.00278544 39501
BEIDOU 8 (C08)          
1 37384U 11013A   21270.52890264 -.00000152  00000-0  00000+0 0  9997
2 37384  59.9209  56.8748 0018635 179.8107  66.5073  1.00278818 38389
BEIDOU 9 (C09)          
1 37763U 11038A   21269.75708124 -.00000079  00000-0  00000-0 0  9990
2 37763  54.4714 181.1193 0086651 226.9122 323.9246  1.00289044 37352
BEIDOU 10 (C10)         
1 37948U 11073A   21269.89144778 -.00000128  00000-0  00000+0 0  9992
2 37948  50.7894 292.4219 0079042 217.2771 273.3188  1.00270279 36115
BEIDOU 11 (C05)         
1 38091U 12008A   21270.49291174  .00000057  00000-0  00000+0 0  9992
2 38091   1.7703  70.0266 0003104 331.8648 200.7644  1.00270121 35198
BEIDOU 12 (C11)         
1 38250U 12018A   21270.46274420 -.00000105  00000-0  00000+0 0  9997
2 38250  56.7464   2.2477 0022901 244.4637  42.3958  1.86234293 64186
BEIDOU 13 (C12)         
1 38251U 12018B   21270.39461398 -.00000105  00000-0  00000+0 0  9992
2 38251  56.6678   1.5915 0013777 243.7014  41.8228  1.86234046 64184
BEIDOU 15 (C14)         
1 38775U 12050B   21269.59909135  .00000003  00000-0  00000-0 0  9992
2 38775  55.2542 120.5734 0012769 328.2643 341.1671  1.86231289 61549
BEIDOU 16 (C02)         
1 38953U 12059A   21270.07186281 -.00000177  00000-0  00000+0 0  9995
2 38953   1.3383  84.1095 0009326 286.0331 105.8531  1.00275267 32769
BEIDOU 17 (C31)         
1 40549U 15019A   21269.89114738 -.00000142  00000-0  00000-0 0  9997
2 40549  52.3280 315.8163 0038199 188.9113 273.6486  1.00298759 23790
BEIDOU 18 (C57)         
1 40748U 15037A   21270.53095008 -.00000106  00000-0  00000+0 0  9998
2 40748  55.9267   0.6136 0001362  41.0464 245.6691  1.86233360 42018
BEIDOU 19 (C58)         
1 40749U 15037B   21269.78581022 -.00000108  00000-0  00000+0 0  9992
2 40749  55.9301   0.6266 0002853 294.4682 348.3120  1.86232053 41996
BEIDOU 20 (C18)         
1 40938U 15053A   21270.06964814 -.00000095  00000-0  00000+0 0  9992
2 40938  51.9105 278.8966 0048387 195.8994  11.2982  1.00260863 22056
BEIDOU IGSO-6 (C13)     
1 41434U 16021A   21269.88819188 -.00000125  00000-0  00000-0 0  9996
2 41434  57.7150  55.5811 0043301 210.3241 153.1161  1.00292643 20199
BEIDOU-2 G7 (C03)       
1 41586U 16037A   21270.43151017 -.00000355  00000-0  00000+0 0  9998
2 41586   1.9154  69.0622 0007528  13.6866 189.6098  1.00271739 19497
BEIDOU-3 M1 (C19)       
1 43001U 17069A   21270.03305431  .00000005  00000-0  00000+0 0  9996
2 43001  55.4082 120.5235 0008042 295.1400 101.2636  1.86231789 26492
BEIDOU-3 M2 (C20)       
1 43002U 17069B   21269.93296760  .00000004  00000-0  00000-0 0  9998
2 43002  55.4072 120.5623 0007168 322.4095  50.2145  1.86231416 26489
BEIDOU-3 M3 (C27)       
1 43107U 18003A   21269.62307082 -.00000109  00000-0  00000-0 0  9996
2 43107  55.3718   1.6782 0004073  64.5627 266.2089  1.86232494 25238
BEIDOU-3 M4 (C28)       
1 43108U 18003B   21269.64256620 -.00000109  00000-0  00000-0 0  9990
2 43108  55.3659   1.6664 0003662 228.0814 160.9404  1.86232508 25248
BEIDOU-3 M5 (C21)       
1 43207U 18018A   21270.04654925  .00000005  00000-0  00000+0 0  9995
2 43207  55.3674 120.6465 0005121 357.0545   3.0252  1.86231695 24638
BEIDOU-3 M6 (C22)       
1 43208U 18018B   21269.57632939  .00000003  00000-0  00000+0 0  9991
2 43208  55.3665 120.6674 0006029 310.7163  49.3159  1.86231704 24620
BEIDOU-3 M7 (C29)       
1 43245U 18029A   21270.19609424 -.00000107  00000-0  00000+0 0  9993
2 43245  55.2978 359.4435 0000963 173.8789  91.3367  1.86232587 23781
BEIDOU-3 M8 (C30)       
1 43246U 18029B   21270.24210008 -.00000107  00000-0  10000-3 0  9991
2 43246  55.2955 359.4715 0002869 346.7095 355.6441  1.86233310 23779
BEIDOU IGSO-7 (C16)     
1 43539U 18057A   21269.86114397 -.00000135  00000-0  00000-0 0  9994
2 43539  55.0635 178.0495 0041316 224.1821  25.5323  1.00290977 11860
BEIDOU-3 M9 (C23)       
1 43581U 18062A   21269.73562137  .00000035  00000-0  00000-0 0  9990
2 43581  54.3659 241.1210 0006192 274.1455 298.9366  1.86231817 21511
BEIDOU-3 M10 (C24)      
1 43582U 18062B   21270.46181373  .00000037  00000-0  00000+0 0  9993
2 43582  54.3656 241.0861 0005593 331.3563 100.0551  1.86232220 21530
BEIDOU-3 M11 (C25)      
1 43602U 18067A   21269.75676093  .00000035  00000-0  00000-0 0  9998
2 43602  54.4437 239.7015 0006952 351.8826   8.8360  1.86231522 21015
BEIDOU-3 M12 (C26)      
1 43603U 18067B   21270.42627708  .00000037  00000-0  00000+0 0  9995
2 43603  54.4403 239.6461 0004507 336.1098  23.9306  1.86231619 21042
BEIDOU-3 M13 (C32)      
1 43622U 18072A   21269.72953638  .00000003  00000-0  00000-0 0  9991
2 43622  55.3322 120.2212 0004843 293.1641 349.7423  1.86231865 20536
BEIDOU-3 M14 (C33)      
1 43623U 18072B   21270.45127845  .00000007  00000-0  00000+0 0  9990
2 43623  55.3347 120.1883 0003543 334.3739 162.6596  1.86231867 20556
BEIDOU-3 M15 (C34)      
1 43647U 18078A   21270.02827885 -.00000108  00000-0  10000-3 0  9994
2 43647  55.1916 359.6289 0005218 356.6322 112.0217  1.86232957 20052
BEIDOU-3 M16 (C35)      
1 43648U 18078B   21270.55838575 -.00000106  00000-0  00000+0 0  9994
2 43648  55.1881 359.6197 0003169  16.2299 356.1123  1.86232290 20087
BEIDOU-3 G1 (C59)       
1 43683U 18085A   21269.93494753 -.00000279  00000-0  00000+0 0  9998
2 43683   0.9230 213.5073 0004746  27.0555 242.0253  1.00271947 10769
BEIDOU-3 M17 (C36)      
1 43706U 18093A   21270.15601690  .00000036  00000-0  00000+0 0  9999
2 43706  54.4471 240.9732 0011337 273.3767  86.4734  1.86232037 19413
BEIDOU-3 M18 (C37)      
1 43707U 18093B   21270.39950389  .00000037  00000-0  00000+0 0  9999
2 43707  54.4478 240.9551 0010055 292.3502 321.6973  1.86232120 19427
BEIDOU-3 IGSO-1 (C38)   
1 44204U 19023A   21270.39340944 -.00000191  00000-0  00000+0 0  9998
2 44204  56.1719  55.8120 0022570 184.9067  25.2405  1.00290495  9071
BEIDOU-2 G8             
1 44231U 19027A   21270.22634600 -.00000248  00000-0  00000+0 0  9992
2 44231   0.3061  36.4855 0007187 161.9888  33.8145  1.00271176  8783
BEIDOU-3 IGSO-2 (C39)   
1 44337U 19035A   21269.71850368 -.00000138  00000-0  00000-0 0  9990
2 44337  55.0991 174.0840 0020247 182.2691  27.3392  1.00281734  8404
BEIDOU-3 M23 (C45)      
1 44542U 19061A   21270.16837825  .00000037  00000-0  10000-3 0  9992
2 44542  54.6725 241.0626 0009247 320.8689  90.9237  1.86231632 13689
BEIDOU-3 M24 (C46)      
1 44543U 19061B   21270.23102545  .00000037  00000-0  10000-3 0  9995
2 44543  54.6712 241.0292 0006903 307.6967  57.0841  1.86231970 13683
BEIDOU-3 IGSO-3         
1 44709U 19073A   21269.79778602 -.00000154  00000-0  00000-0 0  9991
2 44709  57.6847 299.1171 0020499 184.6937 288.6134  1.00286560  7169
BEIDOU-3 M21            
1 44793U 19078A   21270.13961324 -.00000108  00000-0  10000-3 0  9997
2 44793  55.0416 359.6795 0005036   3.9499 133.6537  1.86232614 12545
BEIDOU-3 M22            
1 44794U 19078B   21269.68467205 -.00000109  00000-0  00000+0 0  9991
2 44794  55.0167 359.6926 0003084 356.5439 107.2116  1.86232992 12535
BEIDOU-3 M19            
1 44864U 19090A   21270.20396922  .00000005  00000-0  00000+0 0  9994
2 44864  55.2680 120.4308 0014622 266.9316  19.5865  1.86231980 12128
BEIDOU-3 M20            
1 44865U 19090B   21270.13974023  .00000005  00000-0  00000+0 0  9991
2 44865  55.2700 120.4638 0013165 283.6310  49.7294  1.86231927 12097
BEIDOU-3 G2             
1 45344U 20017A   21270.49718543 -.00000141  00000-0  00000+0 0  9999
2 45344   2.3047 339.6319 0003826 160.8976 124.9781  1.00270809  5989
BEIDOU-3 G3             
1 45807U 20040A   21270.51658703 -.00000356  00000-0  00000+0 0  9991
2 45807   2.0509 299.0166 0010031 336.4289  27.6116  1.00274297  4802
